XRISM                   
1 57800U 23137A   24193.49497209  .00004263  00000+0  31555-3 0  9995
2 57800  31.0017 217.8501 0009482  90.9379 269.2344 15.01475645 46264
